{
  "type": "FeatureCollection",
  "features": [
    {
      "type": "Feature",
      "properties": {
        "norad_id": 36994,
        "name": "FENGYUN 1C DEB",
        "group": "fengyun-1c-debris",
        "lat": -67.63416987786,
        "lon": -39.03506788900303,
        "alt_km": 861.054293915623,
        "timestamp": "2025-12-02T07:10:09.404193+00:00",
        "meta_object_name": "FENGYUN 1C DEB",
        "meta_object_id": "1999-025ECA",
        "meta_epoch": "2025-11-30T15:47:00.237696",
        "meta_mean_motion": 13.90777579,
        "meta_eccentricity": 0.01150946,
        "meta_inclination": 98.6416,
        "meta_ra_of_asc_node": 297.7482,
        "meta_arg_of_pericenter": 326.5997,
        "meta_mean_anomaly": 32.794,
        "meta_ephemeris_type": 0,
        "meta_classification_type": "U",
        "meta_norad_cat_id": 36994,
        "meta_element_set_no": 999,
        "meta_rev_at_epoch": 80739,
        "meta_bstar": 0.00017961143,
        "meta_mean_motion_dot": 1.96e-06,
        "meta_mean_motion_ddot": 0,
        "tle_line1": "1 36994U 99025ECA 25334.65764164  .00000196  00000+0  17961-3 0  9994",
        "tle_line2": "2 36994  98.6416 297.7482 0115094 326.5997  32.7940 13.90777579807394"
      },
      "geometry": {
        "type": "Point",
        "coordinates": [
          -39.03506788900303,
          -67.63416987786
        ]
      }
    },
    {
      "type": "Feature",
      "properties": {
        "norad_id": 36995,
        "name": "FENGYUN 1C DEB",
        "group": "fengyun-1c-debris",
        "lat": 27.32100089797286,
        "lon": -148.50920451257673,
        "alt_km": 856.2014973458054,
        "timestamp": "2025-12-02T07:10:09.404203+00:00",
        "meta_object_name": "FENGYUN 1C DEB",
        "meta_object_id": "1999-025ECB",
        "meta_epoch": "2025-11-29T22:37:55.370208",
        "meta_mean_motion": 14.04864642,
        "meta_eccentricity": 0.00391893,
        "meta_inclination": 98.3442,
        "meta_ra_of_asc_node": 213.6723,
        "meta_arg_of_pericenter": 347.903,
        "meta_mean_anomaly": 12.1195,
        "meta_ephemeris_type": 0,
        "meta_classification_type": "U",
        "meta_norad_cat_id": 36995,
        "meta_element_set_no": 999,
        "meta_rev_at_epoch": 63377,
        "meta_bstar": 0.00012319947,
        "meta_mean_motion_dot": 1.6e-06,
        "meta_mean_motion_ddot": 0,
        "tle_line1": "1 36995U 99025ECB 25333.94300197  .00000160  00000+0  12320-3 0  9993",
        "tle_line2": "2 36995  98.3442 213.6723 0039189 347.9030  12.1195 14.04864642633778"
      },
      "geometry": {
        "type": "Point",
        "coordinates": [
          -148.50920451257673,
          27.32100089797286
        ]
      }
    },
    {
      "type": "Feature",
      "properties": {
        "norad_id": 36996,
        "name": "FENGYUN 1C DEB",
        "group": "fengyun-1c-debris",
        "lat": -63.70898457417374,
        "lon": -67.63583104549245,
        "alt_km": 988.2143807094071,
        "timestamp": "2025-12-02T07:10:09.404213+00:00",
        "meta_object_name": "FENGYUN 1C DEB",
        "meta_object_id": "1999-025ECC",
        "meta_epoch": "2025-11-27T05:46:51.154176",
        "meta_mean_motion": 14.11461211,
        "meta_eccentricity": 0.02552856,
        "meta_inclination": 98.2247,
        "meta_ra_of_asc_node": 124.7451,
        "meta_arg_of_pericenter": 33.8599,
        "meta_mean_anomaly": 87.2847,
        "meta_ephemeris_type": 0,
        "meta_classification_type": "U",
        "meta_norad_cat_id": 36996,
        "meta_element_set_no": 999,
        "meta_rev_at_epoch": 59473,
        "meta_bstar": 0.00085126792,
        "meta_mean_motion_dot": 2.056e-05,
        "meta_mean_motion_ddot": 0,
        "tle_line1": "1 36996U 99025ECC 25331.24086984  .00002056  00000+0  85127-3 0  9991",
        "tle_line2": "2 36996  98.2247 124.7451 0255285  33.8599  87.2847 14.11461211594731"
      },
      "geometry": {
        "type": "Point",
        "coordinates": [
          -67.63583104549245,
          -63.70898457417374
        ]
      }
    },
    {
      "type": "Feature",
      "properties": {
        "norad_id": 37003,
        "name": "FENGYUN 1C DEB",
        "group": "fengyun-1c-debris",
        "lat": 27.879537220080294,
        "lon": -174.9450198429993,
        "alt_km": 850.9760851323708,
        "timestamp": "2025-12-02T07:10:09.404223+00:00",
        "meta_object_name": "FENGYUN 1C DEB",
        "meta_object_id": "1999-025ECK",
        "meta_epoch": "2025-11-29T08:00:12.278880",
        "meta_mean_motion": 13.96183433,
        "meta_eccentricity": 0.00964489,
        "meta_inclination": 98.8482,
        "meta_ra_of_asc_node": 357.4784,
        "meta_arg_of_pericenter": 198.9753,
        "meta_mean_anomaly": 177.4394,
        "meta_ephemeris_type": 0,
        "meta_classification_type": "U",
        "meta_norad_cat_id": 37003,
        "meta_element_set_no": 999,
        "meta_rev_at_epoch": 60470,
        "meta_bstar": 0.00050828845,
        "meta_mean_motion_dot": 6.84e-06,
        "meta_mean_motion_ddot": 0,
        "tle_line1": "1 37003U 99025ECK 25333.33347545  .00000684  00000+0  50829-3 0  9992",
        "tle_line2": "2 37003  98.8482 357.4784 0096448 198.9753 177.4394 13.96183433604708"
      },
      "geometry": {
        "type": "Point",
        "coordinates": [
          -174.9450198429993,
          27.879537220080294
        ]
      }
    },
    {
      "type": "Feature",
      "properties": {
        "norad_id": 37006,
        "name": "FENGYUN 1C DEB",
        "group": "fengyun-1c-debris",
        "lat": -59.49503567622174,
        "lon": -120.06175448356792,
        "alt_km": 565.2369702809101,
        "timestamp": "2025-12-02T07:10:09.404233+00:00",
        "meta_object_name": "FENGYUN 1C DEB",
        "meta_object_id": "1999-025ECN",
        "meta_epoch": "2025-11-30T22:17:22.604640",
        "meta_mean_motion": 14.48720025,
        "meta_eccentricity": 0.02561349,
        "meta_inclination": 99.2981,
        "meta_ra_of_asc_node": 222.2839,
        "meta_arg_of_pericenter": 283.324,
        "meta_mean_anomaly": 73.9509,
        "meta_ephemeris_type": 0,
        "meta_classification_type": "U",
        "meta_norad_cat_id": 37006,
        "meta_element_set_no": 999,
        "meta_rev_at_epoch": 64943,
        "meta_bstar": 0.00098281369,
        "meta_mean_motion_dot": 5.562e-05,
        "meta_mean_motion_ddot": 0,
        "tle_line1": "1 37006U 99025ECN 25334.92873385  .00005562  00000+0  98281-3 0  9991",
        "tle_line2": "2 37006  99.2981 222.2839 0256134 283.3240  73.9509 14.48720025649439"
      },
      "geometry": {
        "type": "Point",
        "coordinates": [
          -120.06175448356792,
          -59.49503567622174
        ]
      }
    },
    {
      "type": "Feature",
      "properties": {
        "norad_id": 37008,
        "name": "FENGYUN 1C DEB",
        "group": "fengyun-1c-debris",
        "lat": 74.10750690825613,
        "lon": 60.61521545281133,
        "alt_km": 899.4654847357124,
        "timestamp": "2025-12-02T07:10:09.404243+00:00",
        "meta_object_name": "FENGYUN 1C DEB",
        "meta_object_id": "1999-025ECQ",
        "meta_epoch": "2025-12-01T06:55:27.138720",
        "meta_mean_motion": 14.07853553,
        "meta_eccentricity": 0.0061174,
        "meta_inclination": 99.135,
        "meta_ra_of_asc_node": 94.005,
        "meta_arg_of_pericenter": 285.5318,
        "meta_mean_anomaly": 73.9102,
        "meta_ephemeris_type": 0,
        "meta_classification_type": "U",
        "meta_norad_cat_id": 37008,
        "meta_element_set_no": 999,
        "meta_rev_at_epoch": 60153,
        "meta_bstar": 0.0012959576,
        "meta_mean_motion_dot": 2.19e-05,
        "meta_mean_motion_ddot": 0,
        "tle_line1": "1 37008U 99025ECQ 25335.28850855  .00002190  00000+0  12960-2 0  9993",
        "tle_line2": "2 37008  99.1350  94.0050 0061174 285.5318  73.9102 14.07853553601534"
      },
      "geometry": {
        "type": "Point",
        "coordinates": [
          60.61521545281133,
          74.10750690825613
        ]
      }
    },
    {
      "type": "Feature",
      "properties": {
        "norad_id": 37017,
        "name": "FENGYUN 1C DEB",
        "group": "fengyun-1c-debris",
        "lat": -72.1228624811127,
        "lon": 71.85336984946231,
        "alt_km": 921.6025441453885,
        "timestamp": "2025-12-02T07:10:09.404253+00:00",
        "meta_object_name": "FENGYUN 1C DEB",
        "meta_object_id": "1999-025ECZ",
        "meta_epoch": "2025-11-30T02:18:32.936256",
        "meta_mean_motion": 14.40338637,
        "meta_eccentricity": 0.02840407,
        "meta_inclination": 98.7879,
        "meta_ra_of_asc_node": 278.248,
        "meta_arg_of_pericenter": 42.7316,
        "meta_mean_anomaly": 319.5581,
        "meta_ephemeris_type": 0,
        "meta_classification_type": "U",
        "meta_norad_cat_id": 37017,
        "meta_element_set_no": 999,
        "meta_rev_at_epoch": 60979,
        "meta_bstar": 0.0019410269,
        "meta_mean_motion_dot": 9.898e-05,
        "meta_mean_motion_ddot": 0,
        "tle_line1": "1 37017U 99025ECZ 25334.09621454  .00009898  00000+0  19410-2 0  9991",
        "tle_line2": "2 37017  98.7879 278.2480 0284040  42.7316 319.5581 14.40338637609792"
      },
      "geometry": {
        "type": "Point",
        "coordinates": [
          71.85336984946231,
          -72.1228624811127
        ]
      }
    }
  ]
}